0 SL-8 R/B
1 16682U 86030B   13282.31770748  .00000123  00000-0  52023-4 0   312
2 16682 074.0282 178.6809 0013774 120.0239 017.5637 14.35300863437899
0 SL-8 R/B
1 16682U 86030B   13283.76064707  .00000107  00000-0  46411-4 0   320
2 16682 074.0281 176.0338 0013786 116.7790 273.6009 14.35301341438109
0 SL-8 R/B
1 16682U 86030B   13286.15590741  .00000168  00000-0  67863-4 0   341
2 16682 074.0276 171.6398 0013758 111.4002 050.5247 14.35301450438441
0 SL-8 R/B
1 16682U 86030B   13287.26494209  .00000166  00000-0  66889-4 0   352
2 16682 074.0274 169.6053 0013747 108.8918 021.2074 14.35301959438603
0 SL-8 R/B
1 16682U 86030B   13288.30911667  .00000209  00000-0  82084-4 0   364
2 16682 074.0271 167.6898 0013720 106.6311 016.6420 14.35302744438751
0 SL-8 R/B
1 16682U 86030B   13289.83232250  .00000179  00000-0  71612-4 0   379
2 16682 074.0268 164.8954 0013710 103.2299 327.4250 14.35303469438979
0 SL-8 R/B
1 16682U 86030B   13291.17103513  .00000151  00000-0  61724-4 0   382
2 16682 074.0266 162.4394 0013749 100.1881 044.9397 14.35304256439164
0 SL-8 R/B
1 16682U 86030B   13292.21057005  .00000140  00000-0  57894-4 0   394
2 16682 074.0266 160.5322 0013745 097.8812 016.4642 14.35304745439313
0 SL-8 R/B
1 16682U 86030B   13293.32624640  .00000163  00000-0  65904-4 0   400
2 16682 074.0265 158.4853 0013754 095.3553 021.4837 14.35305070439473
0 SL-8 R/B
1 16682U 86030B   13294.78256046  .00000183  00000-0  72870-4 0   415
2 16682 074.0265 155.8135 0013750 092.0562 346.6797 14.35305584439687
0 SL-8 R/B
1 16682U 86030B   13296.12048744  .00000176  00000-0  70592-4 0   421
2 16682 074.0264 153.3589 0013778 089.0795 060.0820 14.35306357439870
